[{"OBJECT_NAME":"COSMOS 2600","OBJECT_ID":"2026-023A","EPOCH":"2026-03-07T07:28:50.548224","MEAN_MOTION":15.83649775,"ECCENTRICITY":0.0002055,"INCLINATION":96.6429,"RA_OF_ASC_NODE":142.031,"ARG_OF_PERICENTER":341.6638,"MEAN_ANOMALY":18.4559,"EPHEMERIS_TYPE":0,"CLASSIFICATION_TYPE":"U","NORAD_CAT_ID":67674,"ELEMENT_SET_NO":999,"REV_AT_EPOCH":467,"BSTAR":0.00045216,"MEAN_MOTION_DOT":0.00099736,"MEAN_MOTION_DDOT":0},{"OBJECT_NAME":"2026-023B","OBJECT_ID":"2026-023B","EPOCH":"2026-03-07T14:49:31.471104","MEAN_MOTION":15.22936095,"ECCENTRICITY":0.00193812,"INCLINATION":96.6355,"RA_OF_ASC_NODE":139.8052,"ARG_OF_PERICENTER":139.2192,"MEAN_ANOMALY":221.0502,"EPHEMERIS_TYPE":0,"CLASSIFICATION_TYPE":"U","NORAD_CAT_ID":67675,"ELEMENT_SET_NO":999,"REV_AT_EPOCH":454,"BSTAR":0.00070951743,"MEAN_MOTION_DOT":0.000167,"MEAN_MOTION_DDOT":0},{"OBJECT_NAME":"2026-023C","OBJECT_ID":"2026-023C","EPOCH":"2026-03-07T14:47:17.147616","MEAN_MOTION":15.23050812,"ECCENTRICITY":0.00203685,"INCLINATION":96.639,"RA_OF_ASC_NODE":139.8292,"ARG_OF_PERICENTER":129.6229,"MEAN_ANOMALY":230.6812,"EPHEMERIS_TYPE":0,"CLASSIFICATION_TYPE":"U","NORAD_CAT_ID":67676,"ELEMENT_SET_NO":999,"REV_AT_EPOCH":470,"BSTAR":0.00072550667,"MEAN_MOTION_DOT":0.00017146,"MEAN_MOTION_DDOT":0},{"OBJECT_NAME":"2026-023D","OBJECT_ID":"2026-023D","EPOCH":"2026-03-07T14:51:25.727328","MEAN_MOTION":15.2285825,"ECCENTRICITY":0.00206192,"INCLINATION":96.642,"RA_OF_ASC_NODE":139.8183,"ARG_OF_PERICENTER":134.4017,"MEAN_ANOMALY":225.8914,"EPHEMERIS_TYPE":0,"CLASSIFICATION_TYPE":"U","NORAD_CAT_ID":67677,"ELEMENT_SET_NO":999,"REV_AT_EPOCH":453,"BSTAR":0.00069997949,"MEAN_MOTION_DOT":0.00016448,"MEAN_MOTION_DDOT":0},{"OBJECT_NAME":"2026-023E","OBJECT_ID":"2026-023E","EPOCH":"2026-03-07T14:47:57.549120","MEAN_MOTION":15.23043338,"ECCENTRICITY":0.00203557,"INCLINATION":96.6314,"RA_OF_ASC_NODE":139.7953,"ARG_OF_PERICENTER":133.9192,"MEAN_ANOMALY":226.3732,"EPHEMERIS_TYPE":0,"CLASSIFICATION_TYPE":"U","NORAD_CAT_ID":67678,"ELEMENT_SET_NO":999,"REV_AT_EPOCH":453,"BSTAR":0.00081209402,"MEAN_MOTION_DOT":0.000192,"MEAN_MOTION_DDOT":0},{"OBJECT_NAME":"2026-023F","OBJECT_ID":"2026-023F","EPOCH":"2026-03-07T14:43:54.111072","MEAN_MOTION":15.23196784,"ECCENTRICITY":0.00222271,"INCLINATION":96.6323,"RA_OF_ASC_NODE":142.2961,"ARG_OF_PERICENTER":128.7157,"MEAN_ANOMALY":231.6074,"EPHEMERIS_TYPE":0,"CLASSIFICATION_TYPE":"U","NORAD_CAT_ID":67679,"ELEMENT_SET_NO":999,"REV_AT_EPOCH":452,"BSTAR":0.00072651222,"MEAN_MOTION_DOT":0.00017264,"MEAN_MOTION_DDOT":0},{"OBJECT_NAME":"2026-023G","OBJECT_ID":"2026-023G","EPOCH":"2026-03-07T14:45:01.828800","MEAN_MOTION":15.23161301,"ECCENTRICITY":0.00237136,"INCLINATION":96.6251,"RA_OF_ASC_NODE":142.2753,"ARG_OF_PERICENTER":125.2834,"MEAN_ANOMALY":235.0628,"EPHEMERIS_TYPE":0,"CLASSIFICATION_TYPE":"U","NORAD_CAT_ID":67680,"ELEMENT_SET_NO":999,"REV_AT_EPOCH":452,"BSTAR":0.00085815271,"MEAN_MOTION_DOT":0.00020409,"MEAN_MOTION_DDOT":0},{"OBJECT_NAME":"2026-023H","OBJECT_ID":"2026-023H","EPOCH":"2026-03-07T14:45:25.072992","MEAN_MOTION":15.23074036,"ECCENTRICITY":0.00238405,"INCLINATION":96.6396,"RA_OF_ASC_NODE":142.3121,"ARG_OF_PERICENTER":124.6868,"MEAN_ANOMALY":235.6622,"EPHEMERIS_TYPE":0,"CLASSIFICATION_TYPE":"U","NORAD_CAT_ID":67681,"ELEMENT_SET_NO":999,"REV_AT_EPOCH":452,"BSTAR":0.00066682554,"MEAN_MOTION_DOT":0.00015796,"MEAN_MOTION_DDOT":0},{"OBJECT_NAME":"2026-023J","OBJECT_ID":"2026-023J","EPOCH":"2026-03-07T09:59:39.106176","MEAN_MOTION":15.23178803,"ECCENTRICITY":0.00239011,"INCLINATION":96.635,"RA_OF_ASC_NODE":142.1405,"ARG_OF_PERICENTER":122.1388,"MEAN_ANOMALY":238.2175,"EPHEMERIS_TYPE":0,"CLASSIFICATION_TYPE":"U","NORAD_CAT_ID":67682,"ELEMENT_SET_NO":999,"REV_AT_EPOCH":449,"BSTAR":0.0007967358,"MEAN_MOTION_DOT":0.00018953,"MEAN_MOTION_DDOT":0},{"OBJECT_NAME":"ISS OBJECT XZ","OBJECT_ID":"1998-067XZ","EPOCH":"2026-03-07T08:16:26.908032","MEAN_MOTION":15.51606883,"ECCENTRICITY":0.00094625,"INCLINATION":51.6303,"RA_OF_ASC_NODE":83.4992,"ARG_OF_PERICENTER":177.748,"MEAN_ANOMALY":182.3554,"EPHEMERIS_TYPE":0,"CLASSIFICATION_TYPE":"U","NORAD_CAT_ID":67683,"ELEMENT_SET_NO":999,"REV_AT_EPOCH":442,"BSTAR":0.0008504496,"MEAN_MOTION_DOT":0.00051344,"MEAN_MOTION_DDOT":0},{"OBJECT_NAME":"GXIBA-1","OBJECT_ID":"1998-067YA","EPOCH":"2026-03-07T01:31:56.356608","MEAN_MOTION":15.53815499,"ECCENTRICITY":0.00108926,"INCLINATION":51.6298,"RA_OF_ASC_NODE":84.6245,"ARG_OF_PERICENTER":167.0714,"MEAN_ANOMALY":193.0558,"EPHEMERIS_TYPE":0,"CLASSIFICATION_TYPE":"U","NORAD_CAT_ID":67684,"ELEMENT_SET_NO":999,"REV_AT_EPOCH":438,"BSTAR":0.0012346692,"MEAN_MOTION_DOT":0.00081342,"MEAN_MOTION_DDOT":0},{"OBJECT_NAME":"CORAL","OBJECT_ID":"1998-067YB","EPOCH":"2026-03-07T11:16:16.503744","MEAN_MOTION":15.51949529,"ECCENTRICITY":0.00113881,"INCLINATION":51.6305,"RA_OF_ASC_NODE":82.8329,"ARG_OF_PERICENTER":174.8728,"MEAN_ANOMALY":185.238,"EPHEMERIS_TYPE":0,"CLASSIFICATION_TYPE":"U","NORAD_CAT_ID":67685,"ELEMENT_SET_NO":999,"REV_AT_EPOCH":444,"BSTAR":0.0009374507,"MEAN_MOTION_DOT":0.00057439,"MEAN_MOTION_DDOT":0},{"OBJECT_NAME":"ISS OBJECT YC","OBJECT_ID":"1998-067YC","EPOCH":"2026-03-07T06:31:17.520384","MEAN_MOTION":15.52411971,"ECCENTRICITY":0.0007882,"INCLINATION":51.6305,"RA_OF_ASC_NODE":83.7633,"ARG_OF_PERICENTER":141.8436,"MEAN_ANOMALY":218.3113,"EPHEMERIS_TYPE":0,"CLASSIFICATION_TYPE":"U","NORAD_CAT_ID":67686,"ELEMENT_SET_NO":999,"REV_AT_EPOCH":441,"BSTAR":0.001142,"MEAN_MOTION_DOT":0.00071287,"MEAN_MOTION_DDOT":0},{"OBJECT_NAME":"LEOPARD","OBJECT_ID":"1998-067YD","EPOCH":"2026-03-07T11:18:55.630080","MEAN_MOTION":15.51785936,"ECCENTRICITY":0.00078046,"INCLINATION":51.6311,"RA_OF_ASC_NODE":82.8468,"ARG_OF_PERICENTER":146.5484,"MEAN_ANOMALY":213.6,"EPHEMERIS_TYPE":0,"CLASSIFICATION_TYPE":"U","NORAD_CAT_ID":67687,"ELEMENT_SET_NO":999,"REV_AT_EPOCH":436,"BSTAR":0.00089855352,"MEAN_MOTION_DOT":0.00054618,"MEAN_MOTION_DDOT":0},{"OBJECT_NAME":"ISS OBJECT YE","OBJECT_ID":"1998-067YE","EPOCH":"2026-03-07T05:01:38.352288","MEAN_MOTION":15.52177677,"ECCENTRICITY":0.0007791,"INCLINATION":51.6306,"RA_OF_ASC_NODE":84.0971,"ARG_OF_PERICENTER":142.0067,"MEAN_ANOMALY":218.1474,"EPHEMERIS_TYPE":0,"CLASSIFICATION_TYPE":"U","NORAD_CAT_ID":67688,"ELEMENT_SET_NO":999,"REV_AT_EPOCH":432,"BSTAR":0.0010314,"MEAN_MOTION_DOT":0.00063728,"MEAN_MOTION_DDOT":0},{"OBJECT_NAME":"PRC TEST SPACECRAFT 4","OBJECT_ID":"2026-024A","EPOCH":"2026-03-07T13:12:52.269408","MEAN_MOTION":14.91686331,"ECCENTRICITY":0.00060954,"INCLINATION":49.9864,"RA_OF_ASC_NODE":32.8127,"ARG_OF_PERICENTER":352.06,"MEAN_ANOMALY":8.0244,"EPHEMERIS_TYPE":0,"CLASSIFICATION_TYPE":"U","NORAD_CAT_ID":67689,"ELEMENT_SET_NO":999,"REV_AT_EPOCH":426,"BSTAR":4.9313263e-5,"MEAN_MOTION_DOT":2.57e-6,"MEAN_MOTION_DDOT":0},{"OBJECT_NAME":"CZ-2F R/B","OBJECT_ID":"2026-024B","EPOCH":"2026-03-07T08:36:01.478880","MEAN_MOTION":15.34223665,"ECCENTRICITY":0.01747418,"INCLINATION":49.9888,"RA_OF_ASC_NODE":26.291,"ARG_OF_PERICENTER":265.2003,"MEAN_ANOMALY":92.8984,"EPHEMERIS_TYPE":0,"CLASSIFICATION_TYPE":"U","NORAD_CAT_ID":67690,"ELEMENT_SET_NO":999,"REV_AT_EPOCH":433,"BSTAR":0.00047790213,"MEAN_MOTION_DOT":0.00026288,"MEAN_MOTION_DDOT":0},{"OBJECT_NAME":"CZ-2F DEB","OBJECT_ID":"2026-024C","EPOCH":"2026-03-07T06:59:01.257792","MEAN_MOTION":16.0420751,"ECCENTRICITY":0.0129998,"INCLINATION":49.9027,"RA_OF_ASC_NODE":17.0866,"ARG_OF_PERICENTER":279.9035,"MEAN_ANOMALY":78.7299,"EPHEMERIS_TYPE":0,"CLASSIFICATION_TYPE":"U","NORAD_CAT_ID":67691,"ELEMENT_SET_NO":999,"REV_AT_EPOCH":443,"BSTAR":0.00082528,"MEAN_MOTION_DOT":0.01796216,"MEAN_MOTION_DDOT":1.1209e-5},{"OBJECT_NAME":"CZ-2F DEB","OBJECT_ID":"2026-024D","EPOCH":"2026-03-07T13:53:24.225504","MEAN_MOTION":15.24856631,"ECCENTRICITY":0.02339052,"INCLINATION":50.3192,"RA_OF_ASC_NODE":29.0613,"ARG_OF_PERICENTER":271.6617,"MEAN_ANOMALY":85.7566,"EPHEMERIS_TYPE":0,"CLASSIFICATION_TYPE":"U","NORAD_CAT_ID":67692,"ELEMENT_SET_NO":999,"REV_AT_EPOCH":430,"BSTAR":0.0052825319,"MEAN_MOTION_DOT":0.00306029,"MEAN_MOTION_DDOT":0},{"OBJECT_NAME":"STARLINK-36748","OBJECT_ID":"2026-025A","EPOCH":"2026-03-07T06:07:06.098880","MEAN_MOTION":15.7554459,"ECCENTRICITY":0.0002023,"INCLINATION":97.2816,"RA_OF_ASC_NODE":177.6666,"ARG_OF_PERICENTER":140.9943,"MEAN_ANOMALY":219.1468,"EPHEMERIS_TYPE":0,"CLASSIFICATION_TYPE":"U","NORAD_CAT_ID":67693,"ELEMENT_SET_NO":999,"REV_AT_EPOCH":555,"BSTAR":0.0028364,"MEAN_MOTION_DOT":0.00453055,"MEAN_MOTION_DDOT":0},{"OBJECT_NAME":"STARLINK-36753","OBJECT_ID":"2026-025B","EPOCH":"2026-03-07T13:33:18.748512","MEAN_MOTION":15.75381937,"ECCENTRICITY":0.00016273,"INCLINATION":97.2834,"RA_OF_ASC_NODE":178.0092,"ARG_OF_PERICENTER":128.1048,"MEAN_ANOMALY":232.0365,"EPHEMERIS_TYPE":0,"CLASSIFICATION_TYPE":"U","NORAD_CAT_ID":67694,"ELEMENT_SET_NO":999,"REV_AT_EPOCH":561,"BSTAR":0.0029167629,"MEAN_MOTION_DOT":0.00463202,"MEAN_MOTION_DDOT":0},{"OBJECT_NAME":"STARLINK-36750","OBJECT_ID":"2026-025C","EPOCH":"2026-03-07T11:08:20.281632","MEAN_MOTION":15.80933468,"ECCENTRICITY":0.00012201,"INCLINATION":97.2824,"RA_OF_ASC_NODE":177.9946,"ARG_OF_PERICENTER":89.8871,"MEAN_ANOMALY":270.2538,"EPHEMERIS_TYPE":0,"CLASSIFICATION_TYPE":"U","NORAD_CAT_ID":67695,"ELEMENT_SET_NO":999,"REV_AT_EPOCH":559,"BSTAR":0.0022805067,"MEAN_MOTION_DOT":0.00463186,"MEAN_MOTION_DDOT":0},{"OBJECT_NAME":"STARLINK-36401","OBJECT_ID":"2026-025D","EPOCH":"2026-03-07T13:13:29.712576","MEAN_MOTION":15.75221402,"ECCENTRICITY":0.00011612,"INCLINATION":97.2842,"RA_OF_ASC_NODE":178.0288,"ARG_OF_PERICENTER":58.1851,"MEAN_ANOMALY":301.9527,"EPHEMERIS_TYPE":0,"CLASSIFICATION_TYPE":"U","NORAD_CAT_ID":67696,"ELEMENT_SET_NO":999,"REV_AT_EPOCH":560,"BSTAR":0.00040930374,"MEAN_MOTION_DOT":0.00061444,"MEAN_MOTION_DDOT":0}]
